[{"OBJECT_NAME":"KAZSTSAT","OBJECT_ID":"2018-099AB","EPOCH":"2026-03-09T14:51:18.118944","MEAN_MOTION":14.99620503,"ECCENTRICITY":0.0006528,"INCLINATION":97.4396,"RA_OF_ASC_NODE":105.0128,"ARG_OF_PERICENTER":11.1145,"MEAN_ANOMALY":349.0222,"EPHEMERIS_TYPE":0,"CLASSIFICATION_TYPE":"U","NORAD_CAT_ID":43783,"ELEMENT_SET_NO":999,"REV_AT_EPOCH":39638,"BSTAR":0.00011446,"MEAN_MOTION_DOT":1.354e-5,"MEAN_MOTION_DDOT":0},{"OBJECT_NAME":"STARLINK-34583","OBJECT_ID":"2025-142T","EPOCH":"2026-03-09T22:26:53.700864","MEAN_MOTION":14.98334024,"ECCENTRICITY":0.00022736,"INCLINATION":70.0033,"RA_OF_ASC_NODE":313.961,"ARG_OF_PERICENTER":270.4759,"MEAN_ANOMALY":89.614,"EPHEMERIS_TYPE":0,"CLASSIFICATION_TYPE":"U","NORAD_CAT_ID":64713,"ELEMENT_SET_NO":999,"REV_AT_EPOCH":3949,"BSTAR":0.00037171575,"MEAN_MOTION_DOT":4.345e-5,"MEAN_MOTION_DDOT":0}]
